ONEWEB-0424             
1 50497U 21132AE  23233.11534720  .00000703  00000+0  17509-2 0  9993
2 50497  87.9244 180.4960 0002292  76.5152 283.6235 13.18684196 87034
ONEWEB-0426             
1 50498U 21132AF  23232.39450762  .00000144  00000+0  33142-3 0  9997
2 50498  87.9279 180.6181 0001685  66.4425 293.6884 13.18682728 86899
ONEWEB-0427             
1 50499U 21132AG  23232.35448000 -.00000976  00000+0 -25076-2 0  9997
2 50499  87.9274 180.6459 0001924  66.8379 293.2956 13.18690541 86923
ONEWEB-0429             
1 50500U 21132AH  23232.41768904  .00000100  00000+0  22012-3 0  9990
2 50500  87.9270 180.5999 0002185  82.2347 277.9033 13.18689985 86898
ONEWEB-0430             
1 50501U 21132AJ  23232.78653025  .00000028  00000+0  38247-4 0  9995
2 50501  87.9243 180.5215 0002356  80.5301 279.6098 13.18689772 86985
ONEWEB-0432             
1 50502U 21132AK  23233.12166501  .00000254  00000+0  61191-3 0  9997
2 50502  87.9247 180.4973 0002156  77.9318 282.2056 13.18683514 86999
ONEWEB-0440             
1 50503U 21132AL  23233.10902222  .00000209  00000+0  49756-3 0  9997
2 50503  87.9247 180.5087 0001260  97.0244 263.1032 13.18683399 86974
ONEWEB-0450             
1 50504U 21132AM  23233.10270840  .00000071  00000+0  14858-3 0  9994
2 50504  87.9256 180.4978 0002213  91.8163 268.3223 13.18686221 87005
